OBJECT_NAME,OBJECT_ID,EPOCH,MEAN_MOTION,ECCENTRICITY,INCLINATION,RA_OF_ASC_NODE,ARG_OF_PERICENTER,MEAN_ANOMALY,EPHEMERIS_TYPE,CLASSIFICATION_TYPE,NORAD_CAT_ID,ELEMENT_SET_NO,REV_AT_EPOCH,BSTAR,MEAN_MOTION_DOT,MEAN_MOTION_DDOT
COSMOS 2534 (758),2019-030A,2026-07-14T21:40:32.970432,2.13102157,.0013536,64.3705,191.6832,275.0523,246.8587,0,U,44299,999,5551,0,.58E-6,0
BEIDOU-3 IGSO-2 (C39),2019-035A,2026-07-14T19:06:49.896576,1.00257889,.0039536,55.2501,158.6203,216.6664,322.6164,0,U,44337,999,2594,0,-.139E-5,0
GPS BIII-2  (PRN 18),2019-056A,2026-07-13T12:32:32.391168,2.00569859,.00633667,55.6228,330.0964,198.1416,125.2994,0,U,44506,999,5059,0,-.92E-6,0
BEIDOU-3 M24 (C46),2019-061A,2026-07-14T02:09:46.041408,1.86229164,.00086088,54.3974,181.8206,359.4305,0.5490,0,U,44542,999,4629,0,.51E-6,0
BEIDOU-3 M23 (C45),2019-061B,2026-07-14T11:56:18.282912,1.86227540,.0005914,54.3957,181.7752,339.8026,204.6853,0,U,44543,999,4630,0,.46E-6,0
EUTELSAT 5 WEST B (EGNOS/PRN 121),2019-067A,2026-07-14T15:06:19.024704,1.00269913,.0003096,0.0701,333.5012,138.5371,42.0158,0,U,44624,999,2471,0,-.51E-6,0
BEIDOU-3 M22 (C44),2019-078A,2026-07-13T09:26:32.496288,1.86227300,.00057504,53.9106,298.9058,50.3045,309.7753,0,U,44793,999,4513,0,-.62E-6,0
BEIDOU-3 M21 (C43),2019-078B,2026-07-12T11:01:29.008992,1.86227618,.00037026,53.8852,298.8992,52.5088,307.5509,0,U,44794,999,4512,0,-.62E-6,0
COSMOS 2544 (759),2019-088A,2026-07-11T10:20:31.642656,2.13103002,.0012329,65.5782,72.9223,255.3827,104.5453,0,U,44850,999,5123,0,-.19E-6,0
BEIDOU-3 M19 (C41),2019-090A,2026-07-14T13:54:56.687328,1.86230987,.0016845,56.5830,61.8858,297.6621,241.5774,0,U,44864,999,4474,0,-.39E-6,0
BEIDOU-3 M20 (C42),2019-090B,2026-07-13T08:55:41.784096,1.86231167,.00145401,56.5830,61.9605,312.7537,226.2950,0,U,44865,999,4470,0,-.39E-6,0
BEIDOU-3 G2 (C60),2020-017A,2026-07-14T18:55:50.949696,1.00269052,.0001967,2.9180,47.7166,61.1824,187.7312,0,U,45344,999,2353,0,-.149E-5,0
COSMOS 2545 (760),2020-018A,2026-07-14T10:35:38.561856,2.13102424,.00095193,64.3375,311.4616,229.8963,130.0324,0,U,45358,999,4924,0,-.61E-6,0
BEIDOU-3 G3 (C61),2020-040A,2026-07-14T19:04:27.623424,1.00276866,.0002264,2.5130,67.5210,309.4050,312.2941,0,U,45807,999,2234,0,-.364E-5,0
GPS BIII-3  (PRN 23),2020-041A,2026-07-14T15:21:30.033216,2.00557744,.0065143,56.6877,27.8790,204.6636,142.7605,0,U,45854,999,4458,0,-.66E-6,0
GALAXY 30 (WAAS/PRN 135),2020-056C,2026-07-14T17:57:19.843776,1.00271630,.0001966,0.0161,49.1335,66.2778,321.5171,0,U,46114,999,2156,0,.29E-6,0
COSMOS 2547 (705K),2020-075A,2026-07-14T03:53:07.029888,2.13099921,.00094649,64.6014,191.5752,239.9777,119.9394,0,U,46805,999,4448,0,.67E-6,0
GPS BIII-4  (PRN 14),2020-078A,2026-07-14T06:33:37.734624,2.00564893,.00745337,53.9774,209.6799,207.7906,212.2426,0,U,46826,999,4205,0,.63E-6,0
GPS BIII-5  (PRN 11),2021-054A,2026-07-12T22:23:31.401312,2.00567088,.00264065,55.1610,331.4250,228.5393,130.0348,0,U,48859,999,3726,0,-.91E-6,0
QZS-1R (QZSS/PRN 196),2021-096A,2026-07-14T13:49:51.633120,1.00245239,.0754906,37.5157,79.1769,272.2285,280.2291,0,U,49336,999,1728,0,-.304E-5,0
GSAT0223 (GALILEO 27),2021-116A,2026-07-12T19:14:20.037984,1.70475864,.00024308,57.1512,340.9841,195.8611,164.1379,0,U,49809,999,2861,0,-.91E-6,0
GSAT0224 (GALILEO 28),2021-116B,2026-07-13T12:00:40.220064,1.70475939,.00018625,57.1519,340.9637,181.9105,359.6169,0,U,49810,999,2865,0,-.94E-6,0
COSMOS 2557 (706K),2022-075A,2026-07-14T07:49:28.115040,2.13102227,.001079,64.2811,313.5296,271.5937,88.2918,0,U,52984,999,3129,0,-.64E-6,0
COSMOS 2559 (707K),2022-130A,2026-07-14T14:45:34.188192,2.13101638,.001308,64.2534,313.6016,180.9552,179.0524,0,U,54031,999,2927,0,-.64E-6,0
COSMOS 2564 (761),2022-161A,2026-07-14T10:59:40.413696,2.13101970,.001224,64.7437,191.8064,224.9760,134.9344,0,U,54377,999,2821,0,.64E-6,0
GPS BIII-6  (PRN 28),2023-009A,2026-07-14T15:02:38.593248,2.00569570,.0006236,55.1243,147.4403,322.0081,218.2745,0,U,55268,999,2579,0,.7E-7,0
BEIDOU-3 G4 (C62),2023-066A,2026-07-14T19:12:56.810592,1.00272567,.0004888,0.4609,338.8268,187.3791,194.7490,0,U,56564,999,1167,0,-.289E-5,0
NVS-01 (IRNSS-1J),2023-076A,2026-07-14T19:09:57.096864,1.00264848,.0003553,2.1027,243.1010,7.1122,99.3590,0,U,56759,999,1139,0,-.345E-5,0
COSMOS 2569 (703K),2023-114A,2026-07-14T11:17:24.745056,2.13103712,.0009702,65.3177,71.7007,296.0065,63.9698,0,U,57517,999,2284,0,-.9E-7,0
BEIDOU-3 M28 (C50),2023-207A,2026-07-14T03:32:00.335040,1.86229649,.0002448,55.7766,61.3937,4.5208,355.5548,0,U,58654,999,1734,0,-.41E-6,0
BEIDOU-3 M26 (C48),2023-207B,2026-07-13T22:40:23.834784,1.86229652,.0002015,55.7789,61.3870,324.6571,35.4025,0,U,58655,999,1732,0,-.41E-6,0
